start=new Date('2023-05-29T00:00:00.000Z').valueOf();
sats=[{"MEAN_MOTION_DOT":"0.00017237","PERIAPSIS":"546.301","LAUNCH_DATE":"2021-05-09","APOAPSIS":"548.063","TLE_LINE1":"1 48443U 21040R   23148.89925668  .00017237  00000-0  11729-2 0  9993","RCS_SIZE":"LARGE","CLASSIFICATION_TYPE":"U","PERIOD":"95.591","MEAN_MOTION_DDOT":"0.0000000000000","BSTAR":"0.00117290000000","MEAN_ELEMENT_THEORY":"SGP4","REV_AT_EPOCH":"11352","GP_ID":"232706144","SITE":"AFETR","DECAY_DATE":null,"FILE":"3919546","EPOCH":"2023-05-28T21:34:55.777152","INCLINATION":"53.0550","RA_OF_ASC_NODE":"61.6774","OBJECT_TYPE":"PAYLOAD","NORAD_CAT_ID":"48443","REF_FRAME":"TEME","OBJECT_NAME":"STARLINK-2663","SEMIMAJOR_AXIS":"6925.317","COUNTRY_CODE":"US","CENTER_NAME":"EARTH","MEAN_ANOMALY":"262.3653","ELEMENT_SET_NO":"999","ARG_OF_PERICENTER":"97.7480","MEAN_MOTION":"15.06410306","TLE_LINE2":"2 48443  53.0550  61.6774 0001272  97.7480 262.3653 15.06410306113526","EPHEMERIS_TYPE":"0","OBJECT_ID":"2021-040R","ECCENTRICITY":"0.00012720","TIME_SYSTEM":"UTC"},{"ECCENTRICITY":"0.00014460","TLE_LINE2":"2 48444  53.0545  61.6939 0001446  95.7213 264.3941 15.06410623113523","MEAN_MOTION":"15.06410623","OBJECT_ID":"2021-040S","EPHEMERIS_TYPE":"0","TIME_SYSTEM":"UTC","MEAN_ANOMALY":"264.3941","ELEMENT_SET_NO":"999","ARG_OF_PERICENTER":"95.7213","REF_FRAME":"TEME","OBJECT_TYPE":"PAYLOAD","RA_OF_ASC_NODE":"61.6939","NORAD_CAT_ID":"48444","OBJECT_NAME":"STARLINK-2645","SEMIMAJOR_AXIS":"6925.316","COUNTRY_CODE":"US","CENTER_NAME":"EARTH","DECAY_DATE":null,"FILE":"3919546","SITE":"AFETR","EPOCH":"2023-05-28T21:29:37.429440","INCLINATION":"53.0545","BSTAR":"0.00093616000000","REV_AT_EPOCH":"11352","GP_ID":"232706895","MEAN_ELEMENT_THEORY":"SGP4","RCS_SIZE":"LARGE","CLASSIFICATION_TYPE":"U","PERIOD":"95.591","MEAN_MOTION_DDOT":"0.0000000000000","LAUNCH_DATE":"2021-05-09","PERIAPSIS":"546.180","TLE_LINE1":"1 48444U 21040S   23148.89557210  .00013694  00000-0  93616-3 0  9997","APOAPSIS":"548.182","MEAN_MOTION_DOT":"0.00013694"},{"TIME_SYSTEM":"UTC","ECCENTRICITY":"0.00011210","OBJECT_ID":"2021-040T","EPHEMERIS_TYPE":"0","TLE_LINE2":"2 48445  53.0545  64.9908 0001121  88.9358 271.1760 15.06391096113415","MEAN_MOTION":"15.06391096","ARG_OF_PERICENTER":"88.9358","ELEMENT_SET_NO":"999","MEAN_ANOMALY":"271.1760","COUNTRY_CODE":"US","CENTER_NAME":"EARTH","OBJECT_NAME":"STARLINK-2634","SEMIMAJOR_AXIS":"6925.376","REF_FRAME":"TEME","NORAD_CAT_ID":"48445","RA_OF_ASC_NODE":"64.9908","OBJECT_TYPE":"PAYLOAD","INCLINATION":"53.0545","EPOCH":"2023-05-28T03:53:22.889472","FILE":"3919252","DECAY_DATE":null,"SITE":"AFETR","REV_AT_EPOCH":"11341","GP_ID":"232671356","MEAN_ELEMENT_THEORY":"SGP4","BSTAR":"0.00060810000000","MEAN_MOTION_DDOT":"0.0000000000000","PERIOD":"95.593","CLASSIFICATION_TYPE":"U","RCS_SIZE":"LARGE","TLE_LINE1":"1 48445U 21040T   23148.16207048  .00008786  00000-0  60810-3 0  9995","APOAPSIS":"548.017","LAUNCH_DATE":"2021-05-09","PERIAPSIS":"546.465","MEAN_MOTION_DOT":"0.00008786"},{"MEAN_MOTION_DOT":"0.00003531","PERIAPSIS":"546.506","LAUNCH_DATE":"2021-05-09","TLE_LINE1":"1 48446U 21040U   23148.09203203  .00003531  00000-0  25586-3 0  9991","APOAPSIS":"547.973","CLASSIFICATION_TYPE":"U","RCS_SIZE":"LARGE","MEAN_MOTION_DDOT":"0.0000000000000","PERIOD":"95.593","BSTAR":"0.00025586000000","REV_AT_EPOCH":"11340","GP_ID":"232672106","MEAN_ELEMENT_THEORY":"SGP4","FILE":"3919252","DECAY_DATE":null,"SITE":"AFETR","EPOCH":"2023-05-28T02:12:31.567392","INCLINATION":"53.0542","REF_FRAME":"TEME","NORAD_CAT_ID":"48446","OBJECT_TYPE":"PAYLOAD","RA_OF_ASC_NODE":"65.3004","CENTER_NAME":"EARTH","COUNTRY_CODE":"US","SEMIMAJOR_AXIS":"6925.375","OBJECT_NAME":"STARLINK-2247","ELEMENT_SET_NO":"999","MEAN_ANOMALY":"271.8773","ARG_OF_PERICENTER":"88.2337","ECCENTRICITY":"0.00010590","OBJECT_ID":"2021-040U","EPHEMERIS_TYPE":"0","TLE_LINE2":"2 48446  53.0542  65.3004 0001059  88.2337 271.8773 15.06391443113401","MEAN_MOTION":"15.06391443","TIME_SYSTEM":"UTC"},{"INCLINATION":"53.0550","EPOCH":"2023-05-28T02:07:13.346688","FILE":"3919252","DECAY_DATE":null,"SITE":"AFETR","OBJECT_NAME":"STARLINK-2269","SEMIMAJOR_AXIS":"6925.408","COUNTRY_CODE":"US","CENTER_NAME":"EARTH","REF_FRAME":"TEME","OBJECT_TYPE":"PAYLOAD","RA_OF_ASC_NODE":"65.3167","NORAD_CAT_ID":"48447","ARG_OF_PERICENTER":"103.6907","MEAN_ANOMALY":"256.4199","ELEMENT_SET_NO":"999","TIME_SYSTEM":"UTC","ECCENTRICITY":"0.00010590","MEAN_MOTION":"15.06380603","TLE_LINE2":"2 48447  53.0550  65.3167 0001059 103.6907 256.4199 15.06380603113403","EPHEMERIS_TYPE":"0","OBJECT_ID":"2021-040V","MEAN_MOTION_DOT":"0.00013705","TLE_LINE1":"1 48447U 21040V   23148.08834892  .00013705  00000-0  93766-3 0  9994","APOAPSIS":"548.006","PERIAPSIS":"546.540","LAUNCH_DATE":"2021-05-09","PERIOD":"95.593","MEAN_MOTION_DDOT":"0.0000000000000","RCS_SIZE":"LARGE","CLASSIFICATION_TYPE":"U","GP_ID":"232672358","REV_AT_EPOCH":"11340","MEAN_ELEMENT_THEORY":"SGP4","BSTAR":"0.00093766000000"},{"ECCENTRICITY":"0.00014350","OBJECT_ID":"2021-040W","EPHEMERIS_TYPE":"0","MEAN_MOTION":"15.06412362","TLE_LINE2":"2 48448  53.0557  61.6325 0001435  84.2945 275.8207 15.06412362113526","TIME_SYSTEM":"UTC","ELEMENT_SET_NO":"999","MEAN_ANOMALY":"275.8207","ARG_OF_PERICENTER":"84.2945","REF_FRAME":"TEME","NORAD_CAT_ID":"48448","OBJECT_TYPE":"PAYLOAD","RA_OF_ASC_NODE":"61.6325","CENTER_NAME":"EARTH","COUNTRY_CODE":"US","OBJECT_NAME":"STARLINK-2632","SEMIMAJOR_AXIS":"6925.311","DECAY_DATE":null,"FILE":"3919546","SITE":"AFETR","INCLINATION":"53.0557","EPOCH":"2023-05-28T21:49:28.851744","BSTAR":"0.00015029000000","GP_ID":"232706395","REV_AT_EPOCH":"11352","MEAN_ELEMENT_THEORY":"SGP4","CLASSIFICATION_TYPE":"U","RCS_SIZE":"LARGE","MEAN_MOTION_DDOT":"0.0000000000000","PERIOD":"95.591","LAUNCH_DATE":"2021-05-09","PERIAPSIS":"546.182","TLE_LINE1":"1 48448U 21040W   23148.90936171  .00001958  00000-0  15029-3 0  9992","APOAPSIS":"548.169","MEAN_MOTION_DOT":"0.00001958"},{"PERIAPSIS":"546.378","LAUNCH_DATE":"2021-05-09","APOAPSIS":"548.060","TLE_LINE1":"1 48449U 21040X   23148.94716982  .00008071  00000-0  56011-3 0  9992","MEAN_MOTION_DOT":"0.00008071","BSTAR":"0.00056011000000","MEAN_ELEMENT_THEORY":"SGP4","GP_ID":"232705143","REV_AT_EPOCH":"11353","RCS_SIZE":"LARGE","CLASSIFICATION_TYPE":"U","PERIOD":"95.592","MEAN_MOTION_DDOT":"0.0000000000000","OBJECT_TYPE":"PAYLOAD","RA_OF_ASC_NODE":"61.4641","NORAD_CAT_ID":"48449","REF_FRAME":"TEME","SEMIMAJOR_AXIS":"6925.354","OBJECT_NAME":"STARLINK-2655","CENTER_NAME":"EARTH","COUNTRY_CODE":"US","SITE":"AFETR","DECAY_DATE":null,"FILE":"3919546","INCLINATION":"53.0541","EPOCH":"2023-05-28T22:43:55.472448","MEAN_MOTION":"15.06398201","TLE_LINE2":"2 48449  53.0541  61.4641 0001214  84.3088 275.8040 15.06398201113534","OBJECT_ID":"2021-040X","EPHEMERIS_TYPE":"0","ECCENTRICITY":"0.00012140","TIME_SYSTEM":"UTC","MEAN_ANOMALY":"275.8040","ELEMENT_SET_NO":"999","ARG_OF_PERICENTER":"84.3088"},{"RCS_SIZE":"LARGE","CLASSIFICATION_TYPE":"U","PERIOD":"95.591","MEAN_MOTION_DDOT":"0.0000000000000","BSTAR":"0.00142810000000","MEAN_ELEMENT_THEORY":"SGP4","REV_AT_EPOCH":"11353","GP_ID":"232705894","MEAN_MOTION_DOT":"0.00021062","LAUNCH_DATE":"2021-05-09","PERIAPSIS":"546.476","APOAPSIS":"547.867","TLE_LINE1":"1 48450U 21040Y   23148.94348433  .00021062  00000-0  14281-2 0  9993","MEAN_ANOMALY":"286.5805","ELEMENT_SET_NO":"999","ARG_OF_PERICENTER":"73.5294","TLE_LINE2":"2 48450  53.0539  61.4786 0001004  73.5294 286.5805 15.06413727113538","MEAN_MOTION":"15.06413727","OBJECT_ID":"2021-040Y","EPHEMERIS_TYPE":"0","ECCENTRICITY":"0.00010040","TIME_SYSTEM":"UTC","SITE":"AFETR","DECAY_DATE":null,"FILE":"3919546","EPOCH":"2023-05-28T22:38:37.046112","INCLINATION":"53.0539","RA_OF_ASC_NODE":"61.4786","OBJECT_TYPE":"PAYLOAD","NORAD_CAT_ID":"48450","REF_FRAME":"TEME","OBJECT_NAME":"STARLINK-2660","SEMIMAJOR_AXIS":"6925.306","COUNTRY_CODE":"US","CENTER_NAME":"EARTH"},{"CLASSIFICATION_TYPE":"U","RCS_SIZE":"LARGE","MEAN_MOTION_DDOT":"0.0000000000000","PERIOD":"95.591","BSTAR":"0.00058454000000","GP_ID":"232706145","REV_AT_EPOCH":"11353","MEAN_ELEMENT_THEORY":"SGP4","MEAN_MOTION_DOT":"0.00008440","PERIAPSIS":"546.233","LAUNCH_DATE":"2021-05-09","TLE_LINE1":"1 48451U 21040Z   23148.94254111  .00008440  00000-0  58454-3 0  9999","APOAPSIS":"548.096","ELEMENT_SET_NO":"999","MEAN_ANOMALY":"271.3290","ARG_OF_PERICENTER":"88.7853","ECCENTRICITY":"0.00013450","OBJECT_ID":"2021-040Z","EPHEMERIS_TYPE":"0","TLE_LINE2":"2 48451  53.0548  61.5102 0001345  88.7853 271.3290 15.06416012113539","MEAN_MOTION":"15.06416012","TIME_SYSTEM":"UTC","FILE":"3919546","DECAY_DATE":null,"SITE":"AFETR","INCLINATION":"53.0548","EPOCH":"2023-05-28T22:37:15.551904","REF_FRAME":"TEME","NORAD_CAT_ID":"48451","OBJECT_TYPE":"PAYLOAD","RA_OF_ASC_NODE":"61.5102","COUNTRY_CODE":"US","CENTER_NAME":"EARTH","OBJECT_NAME":"STARLINK-2652","SEMIMAJOR_AXIS":"6925.299"},{"COUNTRY_CODE":"US","CENTER_NAME":"EARTH","SEMIMAJOR_AXIS":"6925.298","OBJECT_NAME":"STARLINK-2703","REF_FRAME":"TEME","NORAD_CAT_ID":"48452","RA_OF_ASC_NODE":"61.4635","OBJECT_TYPE":"PAYLOAD","EPOCH":"2023-05-28T22:33:18.403776","INCLINATION":"53.0548","DECAY_DATE":null,"FILE":"3919546","SITE":"AFETR","TIME_SYSTEM":"UTC","ECCENTRICITY":"0.00010470","EPHEMERIS_TYPE":"0","OBJECT_ID":"2021-040AA","TLE_LINE2":"2 48452  53.0548  61.4635 0001047  77.3187 282.7919 15.06416503113532","MEAN_MOTION":"15.06416503","ARG_OF_PERICENTER":"77.3187","ELEMENT_SET_NO":"999","MEAN_ANOMALY":"282.7919","TLE_LINE1":"1 48452U 21040AA  23148.93979634  .00020985  00000-0  14229-2 0  9992","APOAPSIS":"547.888","LAUNCH_DATE":"2021-05-09","PERIAPSIS":"546.438","MEAN_MOTION_DOT":"0.00020985","REV_AT_EPOCH":"11353","GP_ID":"232706896","MEAN_ELEMENT_THEORY":"SGP4","BSTAR":"0.00142290000000","MEAN_MOTION_DDOT":"0.0000000000000","PERIOD":"95.591","CLASSIFICATION_TYPE":"U","RCS_SIZE":"LARGE"}];
